      2.10          N: GNSS NAV DATA                        RINEX VERSION / TYPE
fic2rin                                 09/30/2024 00:59:02 PGM / RUN BY / DATE
                                                            END OF HEADER
16 24  9 29 15 59 44.0 -.168033875525D-03  .101181285572D-10  .000000000000D+00
     .210000000000D+02  .412500000000D+02  .470019578202D-08  .266182412128D+01
     .190548598766D-05  .139867949765D-01  .505894422531D-05  .515362219048D+04
     .575840000000D+05  .242143869400D-07 -.224007241987D+01 -.178813934326D-06
     .960954583958D+00  .281531250000D+03  .845306853121D+00 -.804783522464D-08
     .205365697163D-09  .100000000000D+01  .233400000000D+04  .000000000000D+00
     .240000000000D+01  .000000000000D+00 -.102445483208D-07  .210000000000D+02
     .529500000000D+05  .400000000000D+01
17 24  9 29 15 59 44.0  .611800234765D-03 -.121644916362D-10  .000000000000D+00
     .140000000000D+02 -.444062500000D+02  .426910639685D-08  .160075544662D+01
    -.239722430706D-05  .135002614697D-01  .710785388947D-05  .515354880142D+04
     .575840000000D+05  .236555933952D-06 -.121874895897D+01 -.210478901863D-06
     .966761425151D+00  .242437500000D+03 -.129377750245D+01 -.794354516626D-08
    -.381444460121D-09  .100000000000D+01  .233400000000D+04  .000000000000D+00
     .240000000000D+01  .000000000000D+00 -.111758708954D-07  .140000000000D+02
     .529500000000D+05  .400000000000D+01
16 24  9 29 17 59 44.0 -.167961232364D-03  .101181285572D-10  .000000000000D+00
     .220000000000D+02  .350000000000D+02  .478805658463D-08 -.257115676702D+01
     .179186463356D-05  .139877067413D-01  .492669641972D-05  .515362050056D+04
     .647840000000D+05  .117346644402D-06 -.224013057964D+01 -.134110450745D-06
     .960956102467D+00  .284375000000D+03  .845316953107D+00 -.806462163815D-08
     .252153360342D-09  .100000000000D+01  .233400000000D+04  .000000000000D+00
     .240000000000D+01  .000000000000D+00 -.102445483208D-07  .220000000000D+02
     .576000000000D+05  .400000000000D+01
17 24  9 29 17 59 44.0  .611713156104D-03 -.121644916362D-10  .000000000000D+00
     .690000000000D+02 -.527187500000D+02  .426946355458D-08  .265108437153D+01
    -.251643359661D-05  .135008753277D-01  .710785388947D-05  .515354663849D+04
     .647840000000D+05  .875443220139D-07 -.121880429824D+01  .298023223877D-07
     .966758761177D+00  .243343750000D+03 -.129385095411D+01 -.775103714752D-08
    -.518593030053D-09  .100000000000D+01  .233400000000D+04  .000000000000D+00
     .240000000000D+01  .000000000000D+00 -.111758708954D-07  .690000000000D+02
     .576000000000D+05  .400000000000D+01
5  24  9 29 18  0  0.0 -.188194680959D-03 -.125055521494D-11  .000000000000D+00
     .140000000000D+02  .585312500000D+02  .450983070969D-08  .305737924624D+01
     .280514359474D-05  .584392191377D-02  .397488474846D-05  .515367695808D+04
     .648000000000D+05  .987201929092D-07  .766845455334D+00 -.763684511185D-07
     .973050676746D+00  .310062500000D+03  .133210084323D+01 -.812998150351D-08
     .365015204348D-09  .100000000000D+01  .233400000000D+04  .000000000000D+00
     .240000000000D+01  .000000000000D+00 -.107102096081D-07  .140000000000D+02
     .576000000000D+05  .400000000000D+01
3  24  9 29 18  0  0.0  .554324127734D-03  .123918653117D-10  .000000000000D+00
     .430000000000D+02  .537187500000D+02  .434303804782D-08 -.646584086103D+00
     .293366611004D-05  .571284489706D-02  .445730984211D-05  .515364858437D+04
     .648000000000D+05 -.465661287308D-07  .819820268851D+00  .819563865662D-07
     .986104670738D+00  .312906250000D+03  .116286422585D+01 -.819927010394D-08
     .412160025262D-09  .100000000000D+01  .233400000000D+04  .000000000000D+00
     .240000000000D+01  .000000000000D+00  .139698386192D-08  .430000000000D+02
     .576000000000D+05  .400000000000D+01
2  24  9 29 18  0  0.0 -.347711145878D-03  .807176547823D-11  .000000000000D+00
     .184000000000D+03  .330937500000D+02  .387766152017D-08  .289931852131D+01
     .164471566677D-05  .161787100369D-01  .119395554066D-04  .515369710541D+04
     .648000000000D+05  .223517417908D-06 -.316605481192D+00  .149011611938D-06
     .967227929246D+00  .145593750000D+03 -.112572826984D+01 -.752138472444D-08
    -.175007289756D-10  .100000000000D+01  .233400000000D+04  .000000000000D+00
     .340000000000D+01  .000000000000D+00 -.176951289177D-07  .184000000000D+03
     .576000000000D+05  .400000000000D+01
1  24  9 29 18  0  0.0  .185202807188D-03 -.100044417195D-10  .000000000000D+00
     .870000000000D+02  .419687500000D+02  .614739892098D-08 -.207458727889D+01
     .221841037273D-05  .134911733912D-01  .504963099957D-05  .515361443138D+04
     .648000000000D+05  .165775418282D-06 -.231138774079D+01 -.119209289551D-06
     .953658988090D+00  .278562500000D+03  .103556215959D+01 -.809069415274D-08
     .260010830495D-09  .100000000000D+01  .233400000000D+04  .000000000000D+00
     .240000000000D+01  .630000000000D+02 -.195577740669D-07  .870000000000D+02
     .576000000000D+05  .400000000000D+01
10 24  9 29 18  0  0.0 -.141505151987D-03 -.128466126625D-10  .000000000000D+00
     .120000000000D+02  .470625000000D+02  .423946230491D-08 -.156852463153D+01
     .244937837124D-05  .971127545927D-02  .351667404175D-05  .515368099213D+04
     .648000000000D+05  .156462192535D-06  .817276017318D+00 -.707805156708D-07
     .985748182471D+00  .319906250000D+03 -.237691594359D+01 -.804640659370D-08
     .452518849226D-09  .100000000000D+01  .233400000000D+04  .000000000000D+00
     .240000000000D+01  .000000000000D+00  .232830643654D-08  .120000000000D+02
     .576000000000D+05  .400000000000D+01
12 24  9 29 18  0  0.0 -.541620422155D-03 -.272848410532D-11  .000000000000D+00
     .650000000000D+02  .370625000000D+02  .493377694018D-08 -.795628293935D+00
     .195577740669D-05  .871183443815D-02  .483542680740D-05  .515358292770D+04
     .648000000000D+05 -.104308128357D-06 -.225784937905D+01  .763684511185D-07
     .961554533977D+00  .286937500000D+03  .146349489324D+01 -.846606693138D-08
     .129291099779D-09  .100000000000D+01  .233400000000D+04  .000000000000D+00
     .240000000000D+01  .000000000000D+00 -.125728547573D-07  .650000000000D+02
     .576000000000D+05  .400000000000D+01
6  24  9 29 18  0  0.0 -.321352854371D-05 -.268300937023D-10  .000000000000D+00
     .840000000000D+02  .386562500000D+02  .346443002170D-08  .840044057995D+00
     .213831663132D-05  .308291055262D-02  .110585242510D-04  .515370882225D+04
     .648000000000D+05  .558793544769D-07 -.215583253371D+00 -.100582838058D-06
     .989867963128D+00  .180281250000D+03 -.764013316153D+00 -.755924344426D-08
     .149291932894D-09  .100000000000D+01  .233400000000D+04  .000000000000D+00
     .340000000000D+01  .000000000000D+00  .372529029846D-08  .840000000000D+02
     .576000000000D+05  .400000000000D+01
7  24  9 29 18  0  0.0 -.324668362737D-04  .386535248253D-11  .000000000000D+00
     .105000000000D+03 -.127500000000D+02  .477734185261D-08 -.729096865811D-01
    -.527128577232D-06  .187493291451D-01  .112075358629D-04  .515361160278D+04
     .648000000000D+05 -.894069671631D-07  .290968218115D+01  .178813934326D-06
     .950833028275D+00  .160000000000D+03 -.209981016340D+01 -.839213528041D-08
     .400016662300D-10  .100000000000D+01  .233400000000D+04  .000000000000D+00
     .240000000000D+01  .000000000000D+00 -.107102096081D-07  .105000000000D+03
     .576000000000D+05  .400000000000D+01
4  24  9 29 18  0  0.0  .452738255262D-03  .693489710102D-11  .000000000000D+00
     .000000000000D+00 -.960000000000D+02  .467912347570D-08  .242945088397D+01
    -.485777854919D-05  .303515582345D-02  .593997538090D-05  .515370581627D+04
     .648000000000D+05 -.596046447754D-07  .189766508240D+01  .242143869400D-07
     .965597577266D+00  .269781250000D+03 -.300624622026D+01 -.821391357104D-08
    -.271797035723D-09  .100000000000D+01  .233400000000D+04  .000000000000D+00
     .240000000000D+01  .000000000000D+00 -.465661287308D-08  .512000000000D+03
     .576000000000D+05  .400000000000D+01
26 24  9 29 18  0  0.0  .676522031426D-04 -.898126018001D-11  .000000000000D+00
     .600000000000D+01  .480937500000D+02  .542058293189D-08 -.167954475457D+01
     .248476862907D-05  .927125278395D-02  .541470944881D-05  .515369913101D+04
     .648000000000D+05  .670552253723D-07 -.241069957454D+01 -.169500708580D-06
     .930487028417D+00  .259375000000D+03  .557262707177D+00 -.844749472921D-08
     .316798910232D-09  .100000000000D+01  .233400000000D+04  .000000000000D+00
     .240000000000D+01  .000000000000D+00  .651925802231D-08  .600000000000D+01
     .576000000000D+05  .400000000000D+01
31 24  9 29 18  0  0.0 -.224069692194D-03  .454747350886D-12  .000000000000D+00
     .220000000000D+02 -.262500000000D+01  .450090176634D-08 -.112050500130D+01
    -.763684511185D-07  .106265810318D-01  .116489827633D-04  .515358114433D+04
     .648000000000D+05  .247731804848D-06  .293171734083D+01  .108033418655D-06
     .954784140329D+00  .149937500000D+03  .741259803715D+00 -.791104381244D-08
     .156077929844D-09  .100000000000D+01  .233400000000D+04  .000000000000D+00
     .240000000000D+01  .000000000000D+00 -.130385160446D-07  .220000000000D+02
     .576000000000D+05  .400000000000D+01
30 24  9 29 18  0  0.0 -.311995856464D-03  .727595761418D-11  .000000000000D+00
     .270000000000D+02 -.862500000000D+01  .495877798158D-08 -.204007470804D+00
    -.527128577232D-06  .716724828817D-02  .111479312181D-04  .515358374405D+04
     .648000000000D+05 -.260770320892D-07  .290841837208D+01  .335276126862D-07
     .935988425481D+00  .149812500000D+03 -.244887814202D+01 -.829177395710D-08
     .278583032673D-10  .100000000000D+01  .233400000000D+04  .000000000000D+00
     .240000000000D+01  .000000000000D+00  .372529029846D-08  .270000000000D+02
     .576000000000D+05  .400000000000D+01
